sat01583
1 01583U 65072D   20046.65992724  .00000139  00000-0  37384-4 0  9995
2 01583  98.4235 201.9571 0160353 187.5786 172.2986 14.56125115829550
